SL-3 R/B                
1 13403U 82079B   26073.85096074  .00008751  00000+0  34770-3 0  9998
2 13403  81.1483 186.9834 0025253 147.5961 212.6830 15.24884589378483
SL-14 R/B               
1 13553U 82092B   26073.91439817  .00000493  00000+0  52613-4 0  9994
2 13553  82.5684 136.5128 0018815 284.9789 248.3761 14.86671913329706
SL-3 R/B                
1 13819U 83010B   26073.74322558  .00022212  00000+0  44296-3 0  9994
2 13819  81.1059 356.0518 0017623  34.4116 325.8266 15.46555324358721
SL-3 R/B                
1 14208U 83075B   26073.89038981  .00014018  00000+0  36776-3 0  9997
2 14208  97.6140  78.6650 0020622 206.1429 153.8776 15.38555041330956
COSMOS 1536             
1 14699U 84013A   26073.57911615  .00008308  00000+0  34210-3 0  9999
2 14699  82.5424 102.9892 0012435 264.0292  95.9528 15.23896288273368
SL-14 R/B               
1 14820U 84027B   26073.87811311  .00000607  00000+0  66558-4 0  9990
2 14820  82.5394 240.1454 0016972 320.0097  39.9868 14.85982707248406
SL-8 R/B                
1 15483U 85006B   26073.95672531  .00000390  00000+0  13784-3 0  9993
2 15483  74.0433 251.4554 0018207 167.8816 308.6977 14.37787427154780
SL-12 R/B(2)            
1 15772U 85042D   26073.78080431  .00000163  00000+0  94603-4 0  9995
2 15772  71.1063  76.9715 0033059 119.7498  52.6113 14.21983982115110
SL-14 R/B               
1 15945U 85069B   26073.92863990  .00000614  00000+0  66565-4 0  9998
2 15945  82.5293  20.0075 0018949 170.2649 189.8939 14.86439988173614
SL-16 R/B               
1 16182U 85097B   26073.88098423  .00000014  00000+0  31094-4 0  9992
2 16182  71.0017 129.6257 0009759 253.3501 280.4196 14.16598194 87965
SL-14 R/B               
1 16496U 86006B   26073.90434849  .00000827  00000+0  85470-4 0  9999
2 16496  82.5237 254.8279 0075092 255.1712 104.1178 14.86823328149986
COSMOS 1743             
1 16719U 86034A   26073.52102420  .00048940  00000+0  62794-3 0  9994
2 16719  82.5290  68.7583 0001693 244.7461 115.3620 15.58934649181008
